NORAD_CAT_ID,OBJECT_NAME,OBJECT_TYPE,EPOCH,MEAN_MOTION,ECCENTRICITY,INCLINATION,RA_OF_ASC_NODE,ARG_OF_PERICENTER,MEAN_ANOMALY,BSTAR,MEAN_MOTION_DOT,MEAN_MOTION_DDOT,TLE_LINE0,TLE_LINE1,TLE_LINE2,SEMIMAJOR_AXIS,PERIOD,APOGEE,PERIGEE,DECAYED
55293.0,STARLINK-5287,PAYLOAD,2023-11-06 22:10:19,14.98315091,0.0001896,70.0023,17.0932,273.6027,86.4915,-0.00021557,-2.663e-05,0.0,0 STARLINK-5287,1 55293U 23010AA  23310.92384020 -.00002663  00000-0 -21557-3 0  9999,2 55293  70.0023  17.0932 0001896 273.6027  86.4915 14.98315091 45385,6950.239,96.108,573.422,570.786,0.0
55293.0,STARLINK-5287,PAYLOAD,2023-11-07 04:35:29,14.97893664,0.0002712,70.0003,16.4227,114.983,245.1611,-0.0046978,-0.00055083,0.0,0 STARLINK-5287,1 55293U 23010AA  23311.19130864 -.00055083  00000-0 -46978-2 0  9991,2 55293  70.0003  16.4227 0002712 114.9830 245.1611 14.97893664 45125,6951.543,96.135,575.293,571.522,0.0
55293.0,STARLINK-5287,PAYLOAD,2023-11-07 10:59:25,14.98301195,0.0002844,69.9999,15.7466,263.5818,96.5017,-0.00032536,-3.97e-05,0.0,0 STARLINK-5287,1 55293U 23010AA  23311.45793828 -.00003970  00000-0 -32536-3 0  9999,2 55293  69.9999  15.7466 0002844 263.5818  96.5017 14.98301195 45162,6950.282,96.109,574.124,570.17,0.0
55293.0,STARLINK-5287,PAYLOAD,2023-11-07 14:11:42,14.98299403,0.0002859,70.0001,15.4108,258.8882,101.1956,-0.00032956,-4.02e-05,0.0,0 STARLINK-5287,1 55293U 23010AA  23311.59146182 -.00004020  00000-0 -32956-3 0  9992,2 55293  70.0001  15.4108 0002859 258.8882 101.1956 14.98299403 45481,6950.288,96.109,574.14,570.165,0.0
55293.0,STARLINK-5287,PAYLOAD,2023-11-07 22:12:25,14.98267675,0.0003139,70.0009,14.5698,265.6666,94.4134,-0.00070602,-8.493e-05,0.0,0 STARLINK-5287,1 55293U 23010AA  23311.92529217 -.00008493  00000-0 -70602-3 0  9991,2 55293  70.0009  14.5698 0003139 265.6666  94.4134 14.98267675 45232,6950.386,96.111,574.432,570.069,0.0
55293.0,STARLINK-5287,PAYLOAD,2023-11-08 11:01:28,14.98285067,0.0002441,70.001,13.2236,253.3887,106.7004,-0.00054514,-6.584e-05,0.0,0 STARLINK-5287,1 55293U 23010AA  23312.45935989 -.00006584  00000-0 -54514-3 0  9990,2 55293  70.0010  13.2236 0002441 253.3887 106.7004 14.98285067 45319,6950.332,96.11,573.893,570.5,0.0
55293.0,STARLINK-5287,PAYLOAD,2023-11-08 14:13:40,14.98337253,0.0002704,70.0011,12.887,266.1284,93.9566,5.077e-05,5.13e-06,0.0,0 STARLINK-5287,1 55293U 23010AA  23312.59283406  .00000513  00000-0  50770-4 0  9990,2 55293  70.0011  12.8870 0002704 266.1284  93.9566 14.98337253 45634,6950.17,96.107,573.915,570.156,0.0
55293.0,STARLINK-5287,PAYLOAD,2023-11-09 03:02:45,14.98314553,0.0002972,70.0018,11.5418,272.3473,87.7346,0.00057041,6.717e-05,0.0,0 STARLINK-5287,1 55293U 23010AA  23313.12691402  .00006717  00000-0  57041-3 0  9998,2 55293  70.0018  11.5418 0002972 272.3473  87.7346 14.98314553 45412,6950.241,96.108,574.171,570.04,0.0
55293.0,STARLINK-5287,PAYLOAD,2023-11-09 14:15:42,14.98310698,0.0002127,70.0013,10.3636,282.1162,77.9759,0.00072837,8.604e-05,0.0,0 STARLINK-5287,1 55293U 23010AA  23313.59423854  .00008604  00000-0  72837-3 0  9990,2 55293  70.0013  10.3636 0002127 282.1162  77.9759 14.98310698 45787,6950.253,96.108,573.596,570.639,0.0
55293.0,STARLINK-5287,PAYLOAD,2023-11-09 20:40:13,14.98373866,0.0002947,70.0028,9.6896,261.7045,98.378,-0.00056496,-6.835e-05,0.0,0 STARLINK-5287,1 55293U 23010AA  23313.86126446 -.00006835  00000-0 -56496-3 0  9996,2 55293  70.0028   9.6896 0002947 261.7045  98.3780 14.98373866 45827,6950.057,96.104,573.97,569.874,0.0
55293.0,STARLINK-5287,PAYLOAD,2023-11-10 11:05:26,14.98348121,0.0002138,70.0012,8.1719,256.8162,103.2758,-0.00021172,-2.619e-05,0.0,0 STARLINK-5287,1 55293U 23010AA  23314.46211433 -.00002619  00000-0 -21172-3 0  9993,2 55293  70.0012   8.1719 0002138 256.8162 103.2758 14.98348121 45619,6950.137,96.106,573.488,570.516,0.0
55293.0,STARLINK-5287,PAYLOAD,2023-11-10 14:17:41,14.98395156,0.0002531,70.0009,7.8356,259.4835,100.6039,-0.0010096,-0.00012138,0.0,0 STARLINK-5287,1 55293U 23010AA  23314.59562053 -.00012138  00000-0 -10096-2 0  9993,2 55293  70.0009   7.8356 0002531 259.4835 100.6039 14.98395156 45939,6949.991,96.103,573.615,570.097,0.0
55293.0,STARLINK-5287,PAYLOAD,2023-11-10 20:42:15,14.98330786,0.0002353,70.0011,7.1618,274.2019,85.8871,1.5697e-05,9.4e-07,0.0,0 STARLINK-5287,1 55293U 23010AA  23314.86267777  .00000094  00000-0  15697-4 0  9998,2 55293  70.0011   7.1618 0002353 274.2019  85.8871 14.98330786 45674,6950.19,96.107,573.691,570.42,0.0
55293.0,STARLINK-5287,PAYLOAD,2023-11-11 11:07:27,14.98339137,0.0002644,70.0007,5.6472,265.938,94.1477,-0.00013035,-1.648e-05,0.0,0 STARLINK-5287,1 55293U 23010AA  23315.46351041 -.00001648  00000-0 -13035-3 0  9994,2 55293  70.0007   5.6472 0002644 265.9380  94.1477 14.98339137 45765,6950.165,96.106,573.867,570.192,0.0
55293.0,STARLINK-5287,PAYLOAD,2023-11-11 14:19:43,14.98338454,0.0002652,70.0006,5.3105,265.4338,94.6518,-0.00013164,-1.664e-05,0.0,0 STARLINK-5287,1 55293U 23010AA  23315.59703010 -.00001664  00000-0 -13164-3 0  9996,2 55293  70.0006   5.3105 0002652 265.4338  94.6518 14.98338454 46089,6950.167,96.106,573.875,570.189,0.0
55293.0,STARLINK-5287,PAYLOAD,2023-11-12 11:09:28,14.98331422,0.0002815,70.0,3.1218,265.6127,94.471,-2.9432e-05,-4.44e-06,0.0,0 STARLINK-5287,1 55293U 23010AA  23316.46490857 -.00000444  00000-0 -29432-4 0  9996,2 55293  70.0000   3.1218 0002815 265.6127  94.4710 14.98331422 45914,6950.188,96.107,574.01,570.097,0.0
55293.0,STARLINK-5287,PAYLOAD,2023-11-12 12:45:36,14.98331198,0.0002819,70.0,2.9535,265.6519,94.4318,-3.1597e-05,-4.7e-06,0.0,0 STARLINK-5287,1 55293U 23010AA  23316.53166869 -.00000470  00000-0 -31597-4 0  9991,2 55293  70.0000   2.9535 0002819 265.6519  94.4318 14.98331198 46221,6950.189,96.107,574.013,570.095,0.0
55293.0,STARLINK-5287,PAYLOAD,2023-11-12 20:46:16,14.98332403,0.0002826,70.0001,2.1119,265.7482,94.3354,6.0425e-06,-2.1e-07,0.0,0 STARLINK-5287,1 55293U 23010AA  23316.86546634 -.00000021  00000-0  60425-5 0  9993,2 55293  70.0001   2.1119 0002826 265.7482  94.3354 14.98332403 46274,6950.185,96.107,574.015,570.086,0.0
55293.0,STARLINK-5287,PAYLOAD,2023-11-13 11:11:28,14.98336526,0.0003023,69.9991,0.5961,268.6643,91.417,4.4128e-05,4.34e-06,0.0,0 STARLINK-5287,1 55293U 23010AA  23317.46630073  .00000434  00000-0  44128-4 0  9999,2 55293  69.9991   0.5961 0003023 268.6643  91.4170 14.98336526 46068,6950.173,96.107,574.139,569.937,0.0
55293.0,STARLINK-5287,PAYLOAD,2023-11-13 12:47:36,14.98337857,0.0003013,69.9992,0.4278,268.7241,91.3573,5.8032e-05,6e-06,0.0,0 STARLINK-5287,1 55293U 23010AA  23317.53305922  .00000600  00000-0  58032-4 0  9993,2 55293  69.9992   0.4278 0003013 268.7241  91.3573 14.98337857 46371,6950.169,96.106,574.128,569.94,0.0
55293.0,STARLINK-5287,PAYLOAD,2023-11-13 20:48:17,14.983299,0.0002944,69.9994,359.5863,267.0923,92.9899,-1.505e-05,-2.73e-06,0.0,0 STARLINK-5287,1 55293U 23010AA  23317.86686521 -.00000273  00000-0 -15050-4 0  9997,2 55293  69.9994 359.5863 0002944 267.0923  92.9899 14.98329900 46426,6950.193,96.107,574.104,570.012,0.0
55293.0,STARLINK-5287,PAYLOAD,2023-11-14 03:12:49,14.98327028,0.0002769,69.9997,358.9126,265.4087,94.6755,-3.8676e-05,-5.54e-06,0.0,0 STARLINK-5287,1 55293U 23010AA  23318.13390836 -.00000554  00000-0 -38676-4 0  9990,2 55293  69.9997 358.9126 0002769 265.4087  94.6755 14.98327028 46162,6950.202,96.107,573.992,570.143,0.0
55293.0,STARLINK-5287,PAYLOAD,2023-11-14 12:49:38,14.98325108,0.0002683,69.9999,357.9029,265.3829,94.7023,-9.6313e-06,-2.08e-06,0.0,0 STARLINK-5287,1 55293U 23010AA  23318.53446946 -.00000208  00000-0 -96313-5 0  9997,2 55293  69.9999 357.9029 0002683 265.3829  94.7023 14.98325108 46529,6950.208,96.107,573.938,570.208,0.0
55293.0,STARLINK-5287,PAYLOAD,2023-11-15 03:14:50,14.98329199,0.0002849,69.9991,356.3879,269.0195,91.0637,-5.1193e-05,-7.04e-06,0.0,0 STARLINK-5287,1 55293U 23010AA  23319.13530812 -.00000704  00000-0 -51193-4 0  9997,2 55293  69.9991 356.3879 0002849 269.0195  91.0637 14.98329199 46310,6950.195,96.107,574.04,570.08,0.0
55293.0,STARLINK-5287,PAYLOAD,2023-11-15 12:51:39,14.98327266,0.0002594,69.9995,355.3779,265.2605,94.8258,5.0801e-06,-3.2e-07,0.0,0 STARLINK-5287,1 55293U 23010AA  23319.53586828 -.00000032  00000-0  50801-5 0  9998,2 55293  69.9995 355.3779 0002594 265.2605  94.8258 14.98327266 46675,6950.201,96.107,573.869,570.263,0.0
55293.0,STARLINK-5287,PAYLOAD,2023-11-16 03:16:51,14.98336422,0.0002069,69.9995,353.8628,273.6694,86.4229,-9.4438e-05,-1.22e-05,0.0,0 STARLINK-5287,1 55293U 23010AA  23320.13670736 -.00001220  00000-0 -94438-4 0  9992,2 55293  69.9995 353.8628 0002069 273.6694  86.4229 14.98336422 46465,6950.173,96.107,573.476,570.6,0.0
55293.0,STARLINK-5287,PAYLOAD,2023-11-16 12:53:40,14.98325469,0.0002307,70.0,352.8531,261.4808,98.609,4.6975e-05,4.68e-06,0.0,0 STARLINK-5287,1 55293U 23010AA  23320.53726908  .00000468  00000-0  46975-4 0  9993,2 55293  70.0000 352.8531 0002307 261.4808  98.6090 14.98325469 46824,6950.207,96.107,573.675,570.468,0.0
55293.0,STARLINK-5287,PAYLOAD,2023-11-17 11:19:35,14.98291769,0.0001622,70.0012,350.4977,254.0034,106.0947,-6.6679e-05,-8.87e-06,0.0,0 STARLINK-5287,1 55293U 23010AA  23321.47193510 -.00000887  00000-0 -66679-4 0  9994,2 55293  70.0012 350.4977 0001622 254.0034 106.0947 14.98291769 46665,6950.311,96.109,573.303,571.049,0.0
55293.0,STARLINK-5287,PAYLOAD,2023-11-17 19:20:13,14.98317751,0.0001833,70.0012,349.6548,267.5321,92.5628,0.00017293,1.97e-05,0.0,0 STARLINK-5287,1 55293U 23010AA  23321.80571418  .00001970  00000-0  17293-3 0  9997,2 55293  70.0012 349.6548 0001833 267.5321  92.5628 14.98317751 46712,6950.231,96.108,573.37,570.822,0.0
55293.0,STARLINK-5287,PAYLOAD,2023-11-18 03:20:53,14.98330156,0.0002602,70.0002,348.8133,267.8911,92.195,3.361e-05,3.08e-06,0.0,0 STARLINK-5287,1 55293U 23010AA  23322.13950576  .00000308  00000-0  33610-4 0  9996,2 55293  70.0002 348.8133 0002602 267.8911  92.1950 14.98330156 46768,6950.192,96.107,573.866,570.249,0.0
